NORAD_CAT_ID,OBJECT_NAME,OBJECT_TYPE,EPOCH,MEAN_MOTION,ECCENTRICITY,INCLINATION,RA_OF_ASC_NODE,ARG_OF_PERICENTER,MEAN_ANOMALY,BSTAR,MEAN_MOTION_DOT,MEAN_MOTION_DDOT,TLE_LINE0,TLE_LINE1,TLE_LINE2,SEMIMAJOR_AXIS,PERIOD,APOGEE,PERIGEE,DECAYED
53601.0,STARLINK-4675,PAYLOAD,2024-07-04 22:44:28,15.08836881,0.0001659,53.2162,114.6801,97.3691,262.749,3.352e-05,2.45e-06,0.0,0 STARLINK-4675,1 53601U 22104P   24186.94754768  .00000245  00000-0  33520-4 0  9993,2 53601  53.2162 114.6801 0001659  97.3691 262.7490 15.08836881103117,6917.89,95.438,540.903,538.607,0.0
53601.0,STARLINK-4675,PAYLOAD,2024-07-05 05:06:00,15.08837589,0.0001407,53.2175,113.4899,102.7217,257.3932,-1.832e-05,-5.79e-06,0.0,0 STARLINK-4675,1 53601U 22104P   24187.21250862 -.00000579  00000-0 -18320-4 0  9993,2 53601  53.2175 113.4899 0001407 102.7217 257.3932 15.08837589102465,6917.888,95.438,540.726,538.779,0.0
53601.0,STARLINK-4675,PAYLOAD,2024-07-05 22:35:15,15.08834393,0.0001515,53.2176,110.2185,103.1918,256.9243,5.9712e-05,6.62e-06,0.0,0 STARLINK-4675,1 53601U 22104P   24187.94114985  .00000662  00000-0  59712-4 0  9999,2 53601  53.2176 110.2185 0001515 103.1918 256.9243 15.08834393103261,6917.898,95.438,540.811,538.714,0.0
53601.0,STARLINK-4675,PAYLOAD,2024-07-06 11:18:19,15.08845557,0.0001308,53.2171,107.8448,97.2728,262.8413,6.4763e-05,7.43e-06,0.0,0 STARLINK-4675,1 53601U 22104P   24188.47106295  .00000743  00000-0  64763-4 0  9995,2 53601  53.2171 107.8448 0001308  97.2728 262.8413 15.08845557102653,6917.863,95.437,540.633,538.824,0.0
53601.0,STARLINK-4675,PAYLOAD,2024-07-06 19:15:16,15.08835575,0.0001931,53.2164,106.3548,84.21,275.9112,3.4856e-05,2.67e-06,0.0,0 STARLINK-4675,1 53601U 22104P   24188.80227283  .00000267  00000-0  34856-4 0  9994,2 53601  53.2164 106.3548 0001931  84.2100 275.9112 15.08835575102708,6917.894,95.438,541.095,538.423,0.0
53601.0,STARLINK-4675,PAYLOAD,2024-07-06 22:26:03,15.0882904,0.0001462,53.2173,105.7641,102.1972,257.9184,-1.2328e-05,-4.84e-06,0.0,0 STARLINK-4675,1 53601U 22104P   24188.93475832 -.00000484  00000-0 -12328-4 0  9996,2 53601  53.2173 105.7641 0001462 102.1972 257.9184 15.08829040103419,6917.914,95.438,540.79,538.767,0.0
53601.0,STARLINK-4675,PAYLOAD,2024-07-07 03:12:12,15.08833474,0.0001495,53.2178,104.8725,100.01,260.1061,2.4974e-05,1.09e-06,0.0,0 STARLINK-4675,1 53601U 22104P   24189.13347544  .00000109  00000-0  24974-4 0  9999,2 53601  53.2178 104.8725 0001495 100.0100 260.1061 15.08833474103442,6917.9,95.438,540.8,538.731,0.0
53601.0,STARLINK-4675,PAYLOAD,2024-07-07 22:16:49,15.08838409,0.000146,53.2177,101.3037,96.9114,263.2044,7.4736e-05,9.02e-06,0.0,0 STARLINK-4675,1 53601U 22104P   24189.92835290  .00000902  00000-0  74736-4 0  9998,2 53601  53.2177 101.3037 0001460  96.9114 263.2044 15.08838409102873,6917.885,95.438,540.76,538.74,0.0
53601.0,STARLINK-4675,PAYLOAD,2024-07-08 10:59:54,15.08846878,0.0001436,53.2177,98.9244,93.5356,266.5801,0.00011597,1.559e-05,0.0,0 STARLINK-4675,1 53601U 22104P   24190.45826629  .00001559  00000-0  11597-3 0  9998,2 53601  53.2177  98.9244 0001436  93.5356 266.5801 15.08846878102953,6917.859,95.437,540.718,538.731,0.0
53601.0,STARLINK-4675,PAYLOAD,2024-07-08 22:07:37,15.08830006,0.0001503,53.2179,96.8432,94.6805,265.4359,8.0231e-05,9.89e-06,0.0,0 STARLINK-4675,1 53601U 22104P   24190.92195953  .00000989  00000-0  80231-4 0  9997,2 53601  53.2179  96.8432 0001503  94.6805 265.4359 15.08830006103714,6917.911,95.438,540.816,538.736,0.0
53601.0,STARLINK-4675,PAYLOAD,2024-07-09 02:53:46,15.08836956,0.0001405,53.2169,95.9489,89.0417,271.0736,7.765e-05,9.48e-06,0.0,0 STARLINK-4675,1 53601U 22104P   24191.12067573  .00000948  00000-0  77650-4 0  9992,2 53601  53.2169  95.9489 0001405  89.0417 271.0736 15.08836956103052,6917.89,95.438,540.727,538.783,0.0
53601.0,STARLINK-4675,PAYLOAD,2024-07-09 10:50:40,15.08855361,0.000153,53.2185,94.459,76.698,283.4183,7.2092e-05,8.6e-06,0.0,0 STARLINK-4675,1 53601U 22104P   24191.45186237  .00000860  00000-0  72092-4 0  9995,2 53601  53.2185  94.4590 0001530  76.6980 283.4183 15.08855361103103,6917.833,95.437,540.757,538.64,0.0
53601.0,STARLINK-4675,PAYLOAD,2024-07-09 17:12:14,15.08848028,0.0002175,53.2152,93.275,76.0065,284.1169,7.8277e-05,9.58e-06,0.0,0 STARLINK-4675,1 53601U 22104P   24191.71683022  .00000958  00000-0  78277-4 0  9997,2 53601  53.2152  93.2750 0002175  76.0065 284.1169 15.08848028103144,6917.856,95.437,541.225,538.216,0.0
53601.0,STARLINK-4675,PAYLOAD,2024-07-09 21:58:24,15.0883184,0.0001496,53.2158,92.3806,86.9885,273.1279,-4.4541e-05,-9.97e-06,0.0,0 STARLINK-4675,1 53601U 22104P   24191.91556188 -.00000997  00000-0 -44541-4 0  9993,2 53601  53.2158  92.3806 0001496  86.9885 273.1279 15.08831840103860,6917.905,95.438,540.805,538.735,0.0
53601.0,STARLINK-4675,PAYLOAD,2024-07-10 02:44:33,15.08834029,0.000164,53.2159,91.488,85.741,274.3769,-2.4095e-05,-6.71e-06,0.0,0 STARLINK-4675,1 53601U 22104P   24192.11428106 -.00000671  00000-0 -24095-4 0  9995,2 53601  53.2159  91.4880 0001640  85.7410 274.3769 15.08834029103202,6917.899,95.438,540.898,538.629,0.0
53601.0,STARLINK-4675,PAYLOAD,2024-07-10 10:41:28,15.08845408,0.0001551,53.2188,90.0027,87.0004,273.1166,3.0795e-05,2.02e-06,0.0,0 STARLINK-4675,1 53601U 22104P   24192.44547241  .00000202  00000-0  30795-4 0  9995,2 53601  53.2188  90.0027 0001551  87.0004 273.1166 15.08845408103253,6917.864,95.437,540.802,538.656,0.0
53601.0,STARLINK-4675,PAYLOAD,2024-07-10 21:49:11,15.08835637,0.0001634,53.2195,87.9217,88.1541,271.9638,0.00010193,1.334e-05,0.0,0 STARLINK-4675,1 53601U 22104P   24192.90915836  .00001334  00000-0  10193-3 0  9991,2 53601  53.2195  87.9217 0001634  88.1541 271.9638 15.08835637104015,6917.894,95.438,540.889,538.628,0.0
53601.0,STARLINK-4675,PAYLOAD,2024-07-11 02:35:19,15.08847452,0.0001388,53.2171,87.0248,112.659,247.4549,7.668e-05,9.33e-06,0.0,0 STARLINK-4675,1 53601U 22104P   24193.10786998  .00000933  00000-0  76680-4 0  9997,2 53601  53.2171  87.0248 0001388 112.6590 247.4549 15.08847452104047,6917.858,95.437,540.683,538.762,0.0
53601.0,STARLINK-4675,PAYLOAD,2024-07-12 19:55:21,15.08841815,0.0001558,53.2171,79.2906,119.0503,241.0645,8.1746e-05,1.013e-05,0.0,0 STARLINK-4675,1 53601U 22104P   24194.83011388  .00001013  00000-0  81746-4 0  9991,2 53601  53.2171  79.2906 0001558 119.0503 241.0645 15.08841815103611,6917.875,95.437,540.818,538.662,0.0
53601.0,STARLINK-4675,PAYLOAD,2024-07-12 23:06:08,15.08822169,0.0001324,53.2173,78.6996,106.8474,253.2664,0.00035192,5.315e-05,0.0,0 STARLINK-4675,1 53601U 22104P   24194.96260347  .00005315  00000-0  35192-3 0  9998,2 53601  53.2173  78.6996 0001324 106.8474 253.2664 15.08822169104323,6917.935,95.439,540.716,538.884,0.0
53601.0,STARLINK-4675,PAYLOAD,2024-07-13 02:16:54,15.08842459,0.0001281,53.217,78.104,98.9842,261.1295,2.1572e-05,5.5e-07,0.0,0 STARLINK-4675,1 53601U 22104P   24195.09507507  .00000055  00000-0  21572-4 0  9999,2 53601  53.2170  78.1040 0001281  98.9842 261.1295 15.08842459104341,6917.873,95.437,540.624,538.852,0.0
53601.0,STARLINK-4675,PAYLOAD,2024-07-13 21:21:32,15.08837573,0.0001222,53.217,74.5357,98.5176,261.5955,5.5747e-05,5.99e-06,0.0,0 STARLINK-4675,1 53601U 22104P   24195.88995823  .00000599  00000-0  55747-4 0  9992,2 53601  53.2170  74.5357 0001222  98.5176 261.5955 15.08837573103777,6917.888,95.438,540.598,538.907,0.0
53601.0,STARLINK-4675,PAYLOAD,2024-07-13 22:56:55,15.08816957,0.0001547,53.2175,74.244,126.9876,233.1258,0.000348,5.251e-05,0.0,0 STARLINK-4675,1 53601U 22104P   24195.95620227  .00005251  00000-0  34800-3 0  9999,2 53601  53.2175  74.2440 0001547 126.9876 233.1258 15.08816957104477,6917.951,95.439,540.886,538.746,0.0
53601.0,STARLINK-4675,PAYLOAD,2024-07-14 08:29:13,15.08849095,0.000117,53.2174,72.4556,91.2552,268.8574,0.00014297,1.989e-05,0.0,0 STARLINK-4675,1 53601U 22104P   24196.35362867  .00001989  00000-0  14297-3 0  9999,2 53601  53.2174  72.4556 0001170  91.2552 268.8574 15.08849095103846,6917.853,95.437,540.527,538.908,0.0
53601.0,STARLINK-4675,PAYLOAD,2024-07-14 14:50:46,15.08840597,0.0001257,53.2186,71.2729,103.1513,256.962,0.00014882,2.081e-05,0.0,0 STARLINK-4675,1 53601U 22104P   24196.61859411  .00002081  00000-0  14882-3 0  9998,2 53601  53.2186  71.2729 0001257 103.1513 256.9620 15.08840597104573,6917.879,95.438,540.613,538.874,0.0
53601.0,STARLINK-4675,PAYLOAD,2024-07-14 21:12:19,15.08835034,0.0001319,53.2177,70.0774,93.2548,266.8595,5.0085e-05,5.09e-06,0.0,0 STARLINK-4675,1 53601U 22104P   24196.88356153  .00000509  00000-0  50085-4 0  9991,2 53601  53.2177  70.0774 0001319  93.2548 266.8595 15.08835034103925,6917.896,95.438,540.673,538.848,0.0
53601.0,STARLINK-4675,PAYLOAD,2024-07-15 01:58:28,15.08843241,0.0001302,53.2181,69.1863,93.0357,267.0784,0.00012596,1.717e-05,0.0,0 STARLINK-4675,1 53601U 22104P   24197.08227514  .00001717  00000-0  12596-3 0  9998,2 53601  53.2181  69.1863 0001302  93.0357 267.0784 15.08843241103951,6917.87,95.437,540.636,538.835,0.0
53601.0,STARLINK-4675,PAYLOAD,2024-07-15 08:20:00,15.08856985,0.0001202,53.2181,67.996,87.7097,272.4032,0.00022295,3.264e-05,0.0,0 STARLINK-4675,1 53601U 22104P   24197.34722369  .00003264  00000-0  22295-3 0  9991,2 53601  53.2181  67.9960 0001202  87.7097 272.4032 15.08856985103994,6917.828,95.436,540.525,538.862,0.0
53601.0,STARLINK-4675,PAYLOAD,2024-07-15 21:03:06,15.08828961,0.0001439,53.2169,65.6168,82.1783,277.9372,-0.0001381,-2.484e-05,0.0,0 STARLINK-4675,1 53601U 22104P   24197.87716348 -.00002484  00000-0 -13810-3 0  9997,2 53601  53.2169  65.6168 0001439  82.1783 277.9372 15.08828961104078,6917.914,95.438,540.775,538.784,0.0
53601.0,STARLINK-4675,PAYLOAD,2024-07-15 22:38:30,15.08829459,0.0001425,53.2167,65.3199,82.3195,277.7958,-9.152e-05,-1.744e-05,0.0,0 STARLINK-4675,1 53601U 22104P   24197.94340398 -.00001744  00000-0 -91520-4 0  9996,2 53601  53.2167  65.3199 0001425  82.3195 277.7958 15.08829459104779,6917.913,95.438,540.763,538.792,0.0
